TEVEL2-5                
1 63214U 25052E   26068.96660006  .00021339  00000+0  71765-3 0  9991
2 63214  97.4013 325.3677 0004700  95.3936 264.7842 15.30817434 54919
STARLINK-34171          
1 64082U 25107U   26068.42284673  .00029660  00000+0  10825-2 0  9993
2 64082  43.0027 202.7098 0001290 236.1366 123.9363 15.27594899 46089
